IRIDIUM 33 DEB          
1 37558U 97051XT  23254.65275090  .00021762  00000+0  39147-2 0  9993
2 37558  86.3974  36.5054 0057818 208.6785 151.1245 14.65415645714153
IRIDIUM 33 DEB          
1 37562U 97051XX  23258.16591730  .00005009  00000+0  14575-2 0  9994
2 37562  86.3804  36.9794 0027357 330.3063 150.6770 14.43876989744510
IRIDIUM 33 DEB          
1 37565U 97051YA  23254.59734906  .00002629  00000+0  74865-3 0  9998
2 37565  86.3569   6.0399 0012050 310.4677  49.5473 14.44939890539233
IRIDIUM 33 DEB          
1 38017U 97051YD  23257.15030658  .00008071  00000+0  35385-2 0  9999
2 38017  86.3426 152.7369 0170167 244.3122 114.0408 14.16125314496727
IRIDIUM 33 DEB          
1 38020U 97051YG  23252.89227528  .00018817  00000+0  57435-2 0  9992
2 38020  86.2957 100.7717 0140944  21.3930 339.3077 14.36202731722759
IRIDIUM 33 DEB          
1 38022U 97051YJ  23256.06042573  .00005923  00000+0  21537-2 0  9990
2 38022  86.2839  13.1024 0054227 213.7574 146.0164 14.32278914573944
IRIDIUM 33 DEB          
1 38028U 97051YQ  23254.56959326  .00001335  00000+0  40021-3 0  9995
2 38028  86.3328 356.6735 0028276 334.5614  25.4192 14.41915021536150
IRIDIUM 33 DEB          
1 38227U 97051ZB  23254.90986436  .00012253  00000+0  23075-2 0  9996
2 38227  86.3076 319.2815 0008359 105.4188 254.7949 14.64468699742757
IRIDIUM 33 DEB          
1 38228U 97051ZC  23258.12288558  .00000996  00000+0  41287-3 0  9992
2 38228  86.2973  35.9474 0064556 306.7530 230.0699 14.24537127731019
IRIDIUM 33 DEB          
1 38236U 97051ZL  23254.68632903  .00008675  00000+0  21880-2 0  9993
2 38236  86.2508 342.4857 0066454 116.7789 244.0234 14.49652229496338
IRIDIUM 33 DEB          
1 38241U 97051ZR  23256.99550031  .00003943  00000+0  10990-2 0  9999
2 38241  86.3313 349.8565 0001027 251.8270 108.2820 14.46132166483032
IRIDIUM 33 DEB          
1 38243U 97051ZT  23258.54490479  .00120525  00000+0  63617-2 0  9993
2 38243  86.3592 342.0443 0032788 251.2671 108.5010 15.14538970525748
IRIDIUM 33 DEB          
1 38468U 97051ZV  23258.71004692  .00028133  00000+0  70175-2 0  9998
2 38468  86.3483  56.0692 0080742 186.9156 173.0942 14.49498511700760
IRIDIUM 33 DEB          
1 38469U 97051ZW  23254.26583174  .00011058  00000+0  35180-2 0  9997
2 38469  86.2709  80.8729 0146003 317.4530  41.5423 14.33848327491944
IRIDIUM 33 DEB          
1 38470U 97051ZX  23255.96658262  .00172811  00000+0  27109-1 0  9994
2 38470  86.4840 138.4856 0063536 134.5008 226.1427 14.70309959497284
IRIDIUM 33 DEB          
1 38474U 97051AAB 23253.58221714  .00002084  00000+0  60266-3 0  9999
2 38474  86.3503   7.0146 0025808 313.4662  46.4393 14.43956128744679
