[{"OBJECT_NAME":"IRIDIUM 33 DEB","OBJECT_ID":"1997-051XT","EPOCH":"2023-09-11T15:39:57.677760","MEAN_MOTION":14.65415645,"ECCENTRICITY":0.0057818,"INCLINATION":86.3974,"RA_OF_ASC_NODE":36.5054,"ARG_OF_PERICENTER":208.6785,"MEAN_ANOMALY":151.1245,"EPHEMERIS_TYPE":0,"CLASSIFICATION_TYPE":"U","NORAD_CAT_ID":37558,"ELEMENT_SET_NO":999,"REV_AT_EPOCH":71415,"BSTAR":0.0039147,"MEAN_MOTION_DOT":0.00021762,"MEAN_MOTION_DDOT":0},{"OBJECT_NAME":"IRIDIUM 33 DEB","OBJECT_ID":"1997-051XX","EPOCH":"2023-09-15T03:58:55.254720","MEAN_MOTION":14.43876989,"ECCENTRICITY":0.0027357,"INCLINATION":86.3804,"RA_OF_ASC_NODE":36.9794,"ARG_OF_PERICENTER":330.3063,"MEAN_ANOMALY":150.677,"EPHEMERIS_TYPE":0,"CLASSIFICATION_TYPE":"U","NORAD_CAT_ID":37562,"ELEMENT_SET_NO":999,"REV_AT_EPOCH":74451,"BSTAR":0.0014575,"MEAN_MOTION_DOT":5.009e-5,"MEAN_MOTION_DDOT":0},{"OBJECT_NAME":"IRIDIUM 33 DEB","OBJECT_ID":"1997-051YA","EPOCH":"2023-09-11T14:20:10.958784","MEAN_MOTION":14.4493989,"ECCENTRICITY":0.001205,"INCLINATION":86.3569,"RA_OF_ASC_NODE":6.0399,"ARG_OF_PERICENTER":310.4677,"MEAN_ANOMALY":49.5473,"EPHEMERIS_TYPE":0,"CLASSIFICATION_TYPE":"U","NORAD_CAT_ID":37565,"ELEMENT_SET_NO":999,"REV_AT_EPOCH":53923,"BSTAR":0.00074865,"MEAN_MOTION_DOT":2.629e-5,"MEAN_MOTION_DDOT":0},{"OBJECT_NAME":"IRIDIUM 33 DEB","OBJECT_ID":"1997-051YD","EPOCH":"2023-09-14T03:36:26.488512","MEAN_MOTION":14.16125314,"ECCENTRICITY":0.0170167,"INCLINATION":86.3426,"RA_OF_ASC_NODE":152.7369,"ARG_OF_PERICENTER":244.3122,"MEAN_ANOMALY":114.0408,"EPHEMERIS_TYPE":0,"CLASSIFICATION_TYPE":"U","NORAD_CAT_ID":38017,"ELEMENT_SET_NO":999,"REV_AT_EPOCH":49672,"BSTAR":0.0035385,"MEAN_MOTION_DOT":8.071e-5,"MEAN_MOTION_DDOT":0},{"OBJECT_NAME":"IRIDIUM 33 DEB","OBJECT_ID":"1997-051YG","EPOCH":"2023-09-09T21:24:52.584192","MEAN_MOTION":14.36202731,"ECCENTRICITY":0.0140944,"INCLINATION":86.2957,"RA_OF_ASC_NODE":100.7717,"ARG_OF_PERICENTER":21.393,"MEAN_ANOMALY":339.3077,"EPHEMERIS_TYPE":0,"CLASSIFICATION_TYPE":"U","NORAD_CAT_ID":38020,"ELEMENT_SET_NO":999,"REV_AT_EPOCH":72275,"BSTAR":0.0057435,"MEAN_MOTION_DOT":0.00018817,"MEAN_MOTION_DDOT":0},{"OBJECT_NAME":"IRIDIUM 33 DEB","OBJECT_ID":"1997-051YJ","EPOCH":"2023-09-13T01:27:00.783072","MEAN_MOTION":14.32278914,"ECCENTRICITY":0.0054227,"INCLINATION":86.2839,"RA_OF_ASC_NODE":13.1024,"ARG_OF_PERICENTER":213.7574,"MEAN_ANOMALY":146.0164,"EPHEMERIS_TYPE":0,"CLASSIFICATION_TYPE":"U","NORAD_CAT_ID":38022,"ELEMENT_SET_NO":999,"REV_AT_EPOCH":57394,"BSTAR":0.0021537,"MEAN_MOTION_DOT":5.923e-5,"MEAN_MOTION_DDOT":0},{"OBJECT_NAME":"IRIDIUM 33 DEB","OBJECT_ID":"1997-051YQ","EPOCH":"2023-09-11T13:40:12.857664","MEAN_MOTION":14.41915021,"ECCENTRICITY":0.0028276,"INCLINATION":86.3328,"RA_OF_ASC_NODE":356.6735,"ARG_OF_PERICENTER":334.5614,"MEAN_ANOMALY":25.4192,"EPHEMERIS_TYPE":0,"CLASSIFICATION_TYPE":"U","NORAD_CAT_ID":38028,"ELEMENT_SET_NO":999,"REV_AT_EPOCH":53615,"BSTAR":0.00040021,"MEAN_MOTION_DOT":1.335e-5,"MEAN_MOTION_DDOT":0},{"OBJECT_NAME":"IRIDIUM 33 DEB","OBJECT_ID":"1997-051ZB","EPOCH":"2023-09-11T21:50:12.280704","MEAN_MOTION":14.64468699,"ECCENTRICITY":0.0008359,"INCLINATION":86.3076,"RA_OF_ASC_NODE":319.2815,"ARG_OF_PERICENTER":105.4188,"MEAN_ANOMALY":254.7949,"EPHEMERIS_TYPE":0,"CLASSIFICATION_TYPE":"U","NORAD_CAT_ID":38227,"ELEMENT_SET_NO":999,"REV_AT_EPOCH":74275,"BSTAR":0.0023075,"MEAN_MOTION_DOT":0.00012253,"MEAN_MOTION_DDOT":0},{"OBJECT_NAME":"IRIDIUM 33 DEB","OBJECT_ID":"1997-051ZC","EPOCH":"2023-09-15T02:56:57.314112","MEAN_MOTION":14.24537127,"ECCENTRICITY":0.0064556,"INCLINATION":86.2973,"RA_OF_ASC_NODE":35.9474,"ARG_OF_PERICENTER":306.753,"MEAN_ANOMALY":230.0699,"EPHEMERIS_TYPE":0,"CLASSIFICATION_TYPE":"U","NORAD_CAT_ID":38228,"ELEMENT_SET_NO":999,"REV_AT_EPOCH":73101,"BSTAR":0.00041287,"MEAN_MOTION_DOT":9.96e-6,"MEAN_MOTION_DDOT":0},{"OBJECT_NAME":"IRIDIUM 33 DEB","OBJECT_ID":"1997-051ZL","EPOCH":"2023-09-11T16:28:18.828192","MEAN_MOTION":14.49652229,"ECCENTRICITY":0.0066454,"INCLINATION":86.2508,"RA_OF_ASC_NODE":342.4857,"ARG_OF_PERICENTER":116.7789,"MEAN_ANOMALY":244.0234,"EPHEMERIS_TYPE":0,"CLASSIFICATION_TYPE":"U","NORAD_CAT_ID":38236,"ELEMENT_SET_NO":999,"REV_AT_EPOCH":49633,"BSTAR":0.002188,"MEAN_MOTION_DOT":8.675e-5,"MEAN_MOTION_DDOT":0},{"OBJECT_NAME":"IRIDIUM 33 DEB","OBJECT_ID":"1997-051ZR","EPOCH":"2023-09-13T23:53:31.226784","MEAN_MOTION":14.46132166,"ECCENTRICITY":0.0001027,"INCLINATION":86.3313,"RA_OF_ASC_NODE":349.8565,"ARG_OF_PERICENTER":251.827,"MEAN_ANOMALY":108.282,"EPHEMERIS_TYPE":0,"CLASSIFICATION_TYPE":"U","NORAD_CAT_ID":38241,"ELEMENT_SET_NO":999,"REV_AT_EPOCH":48303,"BSTAR":0.001099,"MEAN_MOTION_DOT":3.943e-5,"MEAN_MOTION_DDOT":0},{"OBJECT_NAME":"IRIDIUM 33 DEB","OBJECT_ID":"1997-051ZT","EPOCH":"2023-09-15T13:04:39.773856","MEAN_MOTION":15.1453897,"ECCENTRICITY":0.0032788,"INCLINATION":86.3592,"RA_OF_ASC_NODE":342.0443,"ARG_OF_PERICENTER":251.2671,"MEAN_ANOMALY":108.501,"EPHEMERIS_TYPE":0,"CLASSIFICATION_TYPE":"U","NORAD_CAT_ID":38243,"ELEMENT_SET_NO":999,"REV_AT_EPOCH":52574,"BSTAR":0.0063617,"MEAN_MOTION_DOT":0.00120525,"MEAN_MOTION_DDOT":0},{"OBJECT_NAME":"IRIDIUM 33 DEB","OBJECT_ID":"1997-051ZV","EPOCH":"2023-09-15T17:02:28.053888","MEAN_MOTION":14.49498511,"ECCENTRICITY":0.0080742,"INCLINATION":86.3483,"RA_OF_ASC_NODE":56.0692,"ARG_OF_PERICENTER":186.9156,"MEAN_ANOMALY":173.0942,"EPHEMERIS_TYPE":0,"CLASSIFICATION_TYPE":"U","NORAD_CAT_ID":38468,"ELEMENT_SET_NO":999,"REV_AT_EPOCH":70076,"BSTAR":0.0070175,"MEAN_MOTION_DOT":0.00028133,"MEAN_MOTION_DDOT":0},{"OBJECT_NAME":"IRIDIUM 33 DEB","OBJECT_ID":"1997-051ZW","EPOCH":"2023-09-11T06:22:47.862336","MEAN_MOTION":14.33848327,"ECCENTRICITY":0.0146003,"INCLINATION":86.2709,"RA_OF_ASC_NODE":80.8729,"ARG_OF_PERICENTER":317.453,"MEAN_ANOMALY":41.5423,"EPHEMERIS_TYPE":0,"CLASSIFICATION_TYPE":"U","NORAD_CAT_ID":38469,"ELEMENT_SET_NO":999,"REV_AT_EPOCH":49194,"BSTAR":0.003518,"MEAN_MOTION_DOT":0.00011058,"MEAN_MOTION_DDOT":0},{"OBJECT_NAME":"IRIDIUM 33 DEB","OBJECT_ID":"1997-051ZX","EPOCH":"2023-09-12T23:11:52.738368","MEAN_MOTION":14.70309959,"ECCENTRICITY":0.0063536,"INCLINATION":86.484,"RA_OF_ASC_NODE":138.4856,"ARG_OF_PERICENTER":134.5008,"MEAN_ANOMALY":226.1427,"EPHEMERIS_TYPE":0,"CLASSIFICATION_TYPE":"U","NORAD_CAT_ID":38470,"ELEMENT_SET_NO":999,"REV_AT_EPOCH":49728,"BSTAR":0.027109,"MEAN_MOTION_DOT":0.00172811,"MEAN_MOTION_DDOT":0},{"OBJECT_NAME":"IRIDIUM 33 DEB","OBJECT_ID":"1997-051AAB","EPOCH":"2023-09-10T13:58:23.560896","MEAN_MOTION":14.43956128,"ECCENTRICITY":0.0025808,"INCLINATION":86.3503,"RA_OF_ASC_NODE":7.0146,"ARG_OF_PERICENTER":313.4662,"MEAN_ANOMALY":46.4393,"EPHEMERIS_TYPE":0,"CLASSIFICATION_TYPE":"U","NORAD_CAT_ID":38474,"ELEMENT_SET_NO":999,"REV_AT_EPOCH":74467,"BSTAR":0.00060266,"MEAN_MOTION_DOT":2.084e-5,"MEAN_MOTION_DDOT":0}]
